CCSDS_OEM_VERS = 2.0
CREATION_DATE = 2026-04-02T03:00:00
ORIGINATOR = NASA/JSC

META_START
OBJECT_NAME = ORION
OBJECT_ID = -1024
CENTER_NAME = EARTH
REF_FRAME = J2K
TIME_SYSTEM = UTC
START_TIME = 2026-04-02T02:00:00.000
STOP_TIME = 2026-04-02T02:12:00.000
META_STOP

COMMENT Generated by NASA JSC Flight Dynamics

2026-04-02T02:00:00.000  -25685.123  -17027.456  -1456.979  -1.5713  -3.6988  -0.3201
2026-04-02T02:04:00.000  -26568.789  -19205.321  -1645.539  -1.3774  -3.5646  -0.3086
2026-04-02T02:08:00.000  -27389.456  -21298.654  -1826.213  -1.1892  -3.4201  -0.2958
2026-04-02T02:12:00.000  -28145.234  -23301.987  -1998.876  -1.0067  -3.2654  -0.2817
